OBJECT_NAME,OBJECT_ID,EPOCH,MEAN_MOTION,ECCENTRICITY,INCLINATION,RA_OF_ASC_NODE,ARG_OF_PERICENTER,MEAN_ANOMALY,EPHEMERIS_TYPE,CLASSIFICATION_TYPE,NORAD_CAT_ID,ELEMENT_SET_NO,REV_AT_EPOCH,BSTAR,MEAN_MOTION_DOT,MEAN_MOTION_DDOT
STARLINK-30976,2023-183L,2026-01-26T13:40:49.484352,15.02544115,.00014836,43.0025,271.7658,269.5136,90.5536,0,U,58447,999,12038,.371866E-3,.4824E-4,0
STARLINK-30926,2023-183M,2026-01-26T08:48:50.098464,15.02554124,.00013358,43.0037,272.7523,271.0284,89.0406,0,U,58448,999,12035,.12428484E-3,.1476E-4,0
STARLINK-30943,2023-183N,2026-01-26T15:12:39.938112,15.02542892,.00009632,43.0010,246.1722,260.5628,99.5105,0,U,58449,999,12068,-.11503135E-3,-.1757E-4,0
STARLINK-30946,2023-183P,2026-01-25T18:08:16.636704,15.02546178,.0001142,43.0050,276.8066,241.5797,118.4931,0,U,58450,999,12025,.16292057E-3,.1998E-4,0
STARLINK-30944,2023-183Q,2026-01-26T15:26:08.485728,15.02534253,.00012343,43.0028,271.4278,274.3484,85.7217,0,U,58451,999,12036,.26881551E-4,.16E-5,0
STARLINK-30928,2023-183R,2026-01-25T23:24:03.996000,15.02506940,.0001238,43.0028,275.0144,305.7321,54.3406,0,U,58452,999,12029,.57790821E-3,.7605E-4,0
STARLINK-30957,2023-183S,2026-01-26T00:40:46.525728,15.02534391,.00009957,43.0038,275.4067,234.0337,126.0413,0,U,58453,999,12029,-.21023996E-3,-.3042E-4,0
STARLINK-30966,2023-183T,2026-01-25T18:13:05.988576,15.02532435,.00016481,43.0039,276.8271,272.3570,87.7084,0,U,58454,999,12025,-.20828915E-3,-.3016E-4,0
STARLINK-30935,2023-183U,2026-01-25T22:31:29.297856,15.02535223,.00012488,43.0048,275.5912,266.4183,93.6517,0,U,58455,999,12028,.76350827E-4,.828E-5,0
STARLINK-30960,2023-183V,2026-01-26T14:00:01.000224,15.42475271,.00158235,42.9946,194.8402,305.2159,210.9544,0,U,58456,999,593,.4366182E-2,.19909E-2,0
STARLINK-30958,2023-183W,2026-01-26T15:42:07.677792,15.02540642,.00010686,43.0031,271.5069,257.7942,102.2781,0,U,58457,999,12039,-.23135355E-4,-.516E-5,0
STARLINK-30962,2023-183X,2026-01-25T23:09:41.067360,15.02540684,.00006996,43.0039,274.9405,173.5045,186.5806,0,U,58458,999,12029,-.84993189E-4,-.1352E-4,0
STARLINK-30977,2023-183Y,2026-01-25T17:39:30.731904,15.02532868,.00011698,43.0034,276.6507,282.3569,77.7142,0,U,58459,999,12025,.49598671E-4,.466E-5,0
GNOMES-4,2023-185A,2026-01-26T15:09:07.106400,14.99740994,.00107318,97.5131,88.8041,58.2223,302.0045,0,U,58462,999,11806,.51528218E-3,.6317E-4,0
KORSAT-7,2023-185B,2026-01-26T15:38:42.768096,15.00662084,.00242944,97.6275,93.5465,82.4382,277.9600,0,U,58463,999,11805,.27806971E-3,.348E-4,0
KOYOH,2023-185C,2026-01-26T15:23:20.723712,15.16298396,.00085359,97.5484,99.5776,80.9253,279.2945,0,U,58464,999,11866,.48915936E-3,.942E-4,0
BANE,2023-185D,2026-01-26T14:24:34.956576,15.60899513,.00033519,97.3534,107.3568,331.8987,28.2089,0,U,58465,999,12051,.10101915E-2,.85086E-3,0
UHETSAT,2023-185E,2026-01-26T14:43:51.368736,15.29075259,.00150392,97.3676,95.4397,94.4728,265.8230,0,U,58466,999,11964,.37395546E-3,.10519E-3,0
LILIUM-1,2023-185F,2026-01-26T15:51:19.016064,15.58068780,.00054641,97.3428,103.9026,337.0756,23.0255,0,U,58467,999,12031,.1214799E-2,.92068E-3,0
SPIRIT,2023-185G,2026-01-26T15:09:39.199680,15.56570715,.00052111,97.3485,105.1669,346.7464,13.3653,0,U,58468,999,12039,.10070545E-2,.71989E-3,0
ION SCV-015,2023-185H,2026-01-26T15:53:15.038304,15.30856972,.00085349,97.5839,112.1385,236.4500,123.5926,0,U,58469,999,11941,.3621513E-3,.10734E-3,0
STARLINK-30947,2023-186A,2026-01-26T10:45:46.820448,15.02537765,.00013028,43.0032,297.2995,265.4166,94.6527,0,U,58473,999,11949,.33109089E-3,.4272E-4,0
STARLINK-30995,2023-186B,2026-01-26T14:00:01.000224,15.63010348,.00224922,42.9882,117.1336,24.6163,84.4219,0,U,58474,999,595,.67949018E-2,.697615E-2,0
STARLINK-30941,2023-186C,2026-01-26T01:01:49.243584,15.02528438,.00010949,43.0052,299.4135,257.3624,102.7096,0,U,58475,999,11943,.19360362E-3,.2412E-4,0
STARLINK-30980,2023-186D,2026-01-25T18:34:07.146912,15.02536189,.0001573,43.0061,300.8315,264.9573,95.1090,0,U,58476,999,11939,.1603317E-5,-.182E-5,0
STARLINK-30965,2023-186E,2026-01-26T10:10:59.044800,15.02544731,.00013776,43.0034,284.1119,255.2861,104.7829,0,U,58477,999,11964,.35806558E-4,.28E-5,0
STARLINK-30990,2023-186F,2026-01-25T23:16:30.235296,15.02544319,.00013763,43.0048,299.7235,258.2671,101.8017,0,U,58478,999,11946,-.6071884E-5,-.286E-5,0
STARLINK-30984,2023-186H,2026-01-26T01:20:49.905024,15.02546026,.00010464,43.0077,298.6504,266.1378,93.9345,0,U,58480,999,11944,-.79649372E-4,-.128E-4,0
STARLINK-30956,2023-186J,2026-01-26T00:08:45.208320,15.02439386,.00006839,43.0032,274.7127,150.5180,209.5701,0,U,58481,999,11971,.16719959E-2,.22397E-3,0
STARLINK-30997,2023-186K,2026-01-25T17:46:09.336576,15.02553097,.00009987,42.9991,300.5536,276.7756,83.2973,0,U,58482,999,11939,.90698683E-3,.12075E-3,0
