STARLINK-30976          
1 58447U 23183L   26026.57001718  .00004824  00000+0  37187-3 0  9996
2 58447  43.0025 271.7658 0001483 269.5136  90.5536 15.02544115120388
STARLINK-30926          
1 58448U 23183M   26026.36724651  .00001476  00000+0  12428-3 0  9993
2 58448  43.0037 272.7523 0001335 271.0284  89.0406 15.02554124120359
STARLINK-30943          
1 58449U 23183N   26026.63379558 -.00001757  00000+0 -11503-3 0  9993
2 58449  43.0010 246.1722 0000963 260.5628  99.5105 15.02542892120685
STARLINK-30946          
1 58450U 23183P   26025.75574811  .00001998  00000+0  16292-3 0  9991
2 58450  43.0050 276.8066 0001142 241.5797 118.4931 15.02546178120250
STARLINK-30944          
1 58451U 23183Q   26026.64315377  .00000160  00000+0  26882-4 0  9998
2 58451  43.0028 271.4278 0001234 274.3484  85.7217 15.02534253120367
STARLINK-30928          
1 58452U 23183R   26025.97504625  .00007605  00000+0  57791-3 0  9993
2 58452  43.0028 275.0144 0001238 305.7321  54.3406 15.02506940120299
STARLINK-30957          
1 58453U 23183S   26026.02831627 -.00003042  00000+0 -21024-3 0  9999
2 58453  43.0038 275.4067 0000995 234.0337 126.0413 15.02534391120295
STARLINK-30966          
1 58454U 23183T   26025.75909709 -.00003016  00000+0 -20829-3 0  9999
2 58454  43.0039 276.8271 0001648 272.3570  87.7084 15.02532435120259
STARLINK-30935          
1 58455U 23183U   26025.93853354  .00000828  00000+0  76351-4 0  9992
2 58455  43.0048 275.5912 0001248 266.4183  93.6517 15.02535223120286
STARLINK-30960          
1 58456U 23183V   26026.58334491  .00199090  00000+0  43662-2 0  9998
2 58456  42.9946 194.8402 0015823 305.2159 210.9544 15.42475271  5936
STARLINK-30958          
1 58457U 23183W   26026.65425553 -.00000516  00000+0 -23135-4 0  9998
2 58457  43.0031 271.5069 0001068 257.7942 102.2781 15.02540642120398
STARLINK-30962          
1 58458U 23183X   26025.96505865 -.00001352  00000+0 -84993-4 0  9995
2 58458  43.0039 274.9405 0000699 173.5045 186.5806 15.02540684120294
STARLINK-30977          
1 58459U 23183Y   26025.73577236  .00000466  00000+0  49599-4 0  9998
2 58459  43.0034 276.6507 0001169 282.3569  77.7142 15.02532868120250
GNOMES-4                
1 58462U 23185A   26026.63133225  .00006317  00000+0  51528-3 0  9995
2 58462  97.5131  88.8041 0010731  58.2223 302.0045 14.99740994118062
KORSAT-7                
1 58463U 23185B   26026.65188389  .00003480  00000+0  27807-3 0  9990
2 58463  97.6275  93.5465 0024294  82.4382 277.9600 15.00662084118052
KOYOH                   
1 58464U 23185C   26026.64121208  .00009420  00000+0  48916-3 0  9991
2 58464  97.5484  99.5776 0008535  80.9253 279.2945 15.16298396118667
BANE                    
1 58465U 23185D   26026.60040459  .00085086  00000+0  10102-2 0  9993
2 58465  97.3534 107.3568 0003351 331.8987  28.2089 15.60899513120517
UHETSAT                 
1 58466U 23185E   26026.61378899  .00010519  00000+0  37396-3 0  9991
2 58466  97.3676  95.4397 0015039  94.4728 265.8230 15.29075259119640
LILIUM-1                
1 58467U 23185F   26026.66063676  .00092068  00000+0  12148-2 0  9997
2 58467  97.3428 103.9026 0005464 337.0756  23.0255 15.58068780120318
SPIRIT                  
1 58468U 23185G   26026.63170370  .00071989  00000+0  10071-2 0  9997
2 58468  97.3485 105.1669 0005211 346.7464  13.3653 15.56570715120398
ION SCV-015             
1 58469U 23185H   26026.66197961  .00010734  00000+0  36215-3 0  9996
2 58469  97.5839 112.1385 0008534 236.4500 123.5926 15.30856972119416
STARLINK-30947          
1 58473U 23186A   26026.44845857  .00004272  00000+0  33109-3 0  9991
2 58473  43.0032 297.2995 0001302 265.4166  94.6527 15.02537765119498
STARLINK-30995          
1 58474U 23186B   26026.58334491  .00697615  00000+0  67949-2 0  9991
2 58474  42.9882 117.1336 0022492  24.6163  84.4219 15.63010348  5954
STARLINK-30941          
1 58475U 23186C   26026.04293106  .00002412  00000+0  19360-3 0  9990
2 58475  43.0052 299.4135 0001094 257.3624 102.7096 15.02528438119432
STARLINK-30980          
1 58476U 23186D   26025.77369383 -.00000182  00000+0  16033-5 0  9990
2 58476  43.0061 300.8315 0001573 264.9573  95.1090 15.02536189119395
STARLINK-30965          
1 58477U 23186E   26026.42429450  .00000280  00000+0  35807-4 0  9993
2 58477  43.0034 284.1119 0001377 255.2861 104.7829 15.02544731119644
STARLINK-30990          
1 58478U 23186F   26025.96979439 -.00000286  00000+0 -60719-5 0  9998
2 58478  43.0048 299.7235 0001376 258.2671 101.8017 15.02544319119461
STARLINK-30984          
1 58480U 23186H   26026.05613316 -.00001280  00000+0 -79649-4 0  9997
2 58480  43.0077 298.6504 0001046 266.1378  93.9345 15.02546026119449
STARLINK-30956          
1 58481U 23186J   26026.00607880  .00022397  00000+0  16720-2 0  9991
2 58481  43.0032 274.7127 0000683 150.5180 209.5701 15.02439386119711
STARLINK-30997          
1 58482U 23186K   26025.74038584  .00012075  00000+0  90699-3 0  9991
2 58482  42.9991 300.5536 0000998 276.7756  83.2973 15.02553097119393
